0 FENGYUN 1C DEB
1 30727U 99025ASM 13281.46539869  .00012702  00000-0  30827-2 0  3379
2 30727 099.2184 093.9790 0131673 114.8155 301.0253 14.47875302350325
0 FENGYUN 1C DEB
1 30727U 99025ASM 13282.42839302  .00022927  00000-0  55416-2 0  3383
2 30727 099.2186 095.0287 0131341 111.8763 280.6276 14.47930160350461
0 FENGYUN 1C DEB
1 30727U 99025ASM 13283.46451980  .00020225  00000-0  48893-2 0  3391
2 30727 099.2184 096.1584 0131278 108.8023 281.5364 14.47959818350611
0 FENGYUN 1C DEB
1 30727U 99025ASM 13285.46834532  .00015353  00000-0  37135-2 0  3417
2 30727 099.2180 098.3426 0131160 102.8295 287.0224 14.48015578350906
0 FENGYUN 1C DEB
1 30727U 99025ASM 13286.94395795  .00013784  00000-0  33338-2 0  3422
2 30727 099.2188 099.9524 0131063 098.4205 059.3191 14.48054488351113
0 FENGYUN 1C DEB
1 30727U 99025ASM 13287.97935007  .00025738  00000-0  61997-2 0  3437
2 30727 099.2184 101.0812 0130894 095.2812 056.9465 14.48090658351266
0 FENGYUN 1C DEB
1 30727U 99025ASM 13288.44425109  .00023181  00000-0  55863-2 0  3443
2 30727 099.2187 101.5886 0130723 093.8339 320.6249 14.48111360351337
0 FENGYUN 1C DEB
1 30727U 99025ASM 13290.44344854  .00020343  00000-0  49006-2 0  3453
2 30727 099.2185 103.7688 0130567 087.8531 303.1413 14.48173462351624
0 FENGYUN 1C DEB
1 30727U 99025ASM 13291.01393623  .00015469  00000-0  37306-2 0  3469
2 30727 099.2180 104.3907 0130518 086.1380 037.3833 14.48196565351700
0 FENGYUN 1C DEB
1 30727U 99025ASM 13292.05052685  .00014618  00000-0  35250-2 0  3476
2 30727 099.2176 105.5207 0130403 082.9683 041.8069 14.48225939351859
0 FENGYUN 1C DEB
1 30727U 99025ASM 13294.45065525  .00018093  00000-0  43525-2 0  3485
2 30727 099.2192 108.1380 0130328 075.7626 315.5153 14.48284870352205
